start=new Date('2022-03-16T00:00:00.000Z').valueOf();
sats=[{"EPOCH":"2022-03-15T22:00:00.999936","MEAN_ELEMENT_THEORY":"SGP4","PERIAPSIS":"413.785","COUNTRY_CODE":"US","MEAN_MOTION_DDOT":"0.0000000000000","REV_AT_EPOCH":"1657","NORAD_CAT_ID":"50199","ECCENTRICITY":"0.00016970","RCS_SIZE":"LARGE","GP_ID":"198824684","MEAN_MOTION":"15.50612790","REF_FRAME":"TEME","BSTAR":"-0.01336200000000","LAUNCH_DATE":"2021-12-18","CLASSIFICATION_TYPE":"U","INCLINATION":"53.2173","OBJECT_TYPE":"PAYLOAD","TIME_SYSTEM":"UTC","MEAN_MOTION_DOT":"-0.00720841","APOAPSIS":"416.091","CENTER_NAME":"EARTH","OBJECT_ID":"2021-125AV","TLE_LINE1":"1 50199U 21125AV  22074.91667824 -.00720841  00000-0 -13362-1 0  9993","OBJECT_NAME":"STARLINK-3270","FILE":"3360890","EPHEMERIS_TYPE":"0","ELEMENT_SET_NO":"999","TLE_LINE2":"2 50199  53.2173 294.1257 0001697  45.7842 146.9738 15.50612790 16573","PERIOD":"92.867","SITE":"AFWTR","ARG_OF_PERICENTER":"45.7842","RA_OF_ASC_NODE":"294.1257","MEAN_ANOMALY":"146.9738","SEMIMAJOR_AXIS":"6793.073","DECAY_DATE":null},{"ARG_OF_PERICENTER":"63.1292","RA_OF_ASC_NODE":"294.1451","MEAN_ANOMALY":"196.8184","SEMIMAJOR_AXIS":"6788.617","DECAY_DATE":null,"MEAN_MOTION_DOT":"-0.00712641","APOAPSIS":"411.421","CENTER_NAME":"EARTH","OBJECT_ID":"2021-125AW","TLE_LINE1":"1 50200U 21125AW  22074.91667824 -.00712641  00000-0 -12666-1 0  9991","ELEMENT_SET_NO":"999","FILE":"3360890","OBJECT_NAME":"STARLINK-3235","EPHEMERIS_TYPE":"0","SITE":"AFWTR","PERIOD":"92.775","TLE_LINE2":"2 50200  53.2176 294.1451 0001383  63.1292 196.8184 15.52139538 16575","CLASSIFICATION_TYPE":"U","INCLINATION":"53.2176","TIME_SYSTEM":"UTC","OBJECT_TYPE":"PAYLOAD","MEAN_ELEMENT_THEORY":"SGP4","PERIAPSIS":"409.544","EPOCH":"2022-03-15T22:00:00.999936","COUNTRY_CODE":"US","MEAN_MOTION_DDOT":"0.0000000000000","REV_AT_EPOCH":"1657","NORAD_CAT_ID":"50200","GP_ID":"198824680","MEAN_MOTION":"15.52139538","REF_FRAME":"TEME","RCS_SIZE":"LARGE","ECCENTRICITY":"0.00013830","LAUNCH_DATE":"2021-12-18","BSTAR":"-0.01266600000000"},{"MEAN_ELEMENT_THEORY":"SGP4","PERIAPSIS":"408.358","EPOCH":"2022-03-15T22:00:00.999936","COUNTRY_CODE":"US","MEAN_MOTION_DDOT":"0.0000000000000","REV_AT_EPOCH":"1657","NORAD_CAT_ID":"50201","MEAN_MOTION":"15.52511475","GP_ID":"198824677","REF_FRAME":"TEME","ECCENTRICITY":"0.00015330","RCS_SIZE":"MEDIUM","LAUNCH_DATE":"2021-12-18","BSTAR":"-0.01251600000000","CLASSIFICATION_TYPE":"U","INCLINATION":"53.2176","TIME_SYSTEM":"UTC","OBJECT_TYPE":"PAYLOAD","MEAN_MOTION_DOT":"-0.00713696","APOAPSIS":"410.439","CENTER_NAME":"EARTH","OBJECT_ID":"2021-125AX","TLE_LINE1":"1 50201U 21125AX  22074.91667824 -.00713696  00000-0 -12516-1 0  9997","ELEMENT_SET_NO":"999","OBJECT_NAME":"STARLINK-3255","FILE":"3360890","EPHEMERIS_TYPE":"0","SITE":"AFWTR","TLE_LINE2":"2 50201  53.2176 294.1394 0001533  48.6457 233.2996 15.52511475 16571","PERIOD":"92.753","ARG_OF_PERICENTER":"48.6457","RA_OF_ASC_NODE":"294.1394","MEAN_ANOMALY":"233.2996","SEMIMAJOR_AXIS":"6787.533","DECAY_DATE":null},{"LAUNCH_DATE":"2021-12-18","BSTAR":"-0.01536200000000","GP_ID":"198848836","MEAN_MOTION":"15.46628905","REF_FRAME":"TEME","ECCENTRICITY":"0.00014860","RCS_SIZE":"LARGE","NORAD_CAT_ID":"50202","REV_AT_EPOCH":"367","MEAN_MOTION_DDOT":"0.0000000000000","COUNTRY_CODE":"US","MEAN_ELEMENT_THEORY":"SGP4","PERIAPSIS":"425.587","EPOCH":"2022-03-15T22:00:00.999936","TIME_SYSTEM":"UTC","OBJECT_TYPE":"PAYLOAD","INCLINATION":"53.2175","CLASSIFICATION_TYPE":"U","SITE":"AFWTR","PERIOD":"93.106","TLE_LINE2":"2 50202  53.2175 293.2642 0001486  56.8546 198.6172 15.46628905  3671","ELEMENT_SET_NO":"999","FILE":"3360930","OBJECT_NAME":"STARLINK-3256","EPHEMERIS_TYPE":"0","TLE_LINE1":"1 50202U 21125AY  22074.91667824 -.00720173  00000-0 -15362-1 0  9998","OBJECT_ID":"2021-125AY","CENTER_NAME":"EARTH","APOAPSIS":"427.609","MEAN_MOTION_DOT":"-0.00720173","DECAY_DATE":null,"SEMIMAJOR_AXIS":"6804.733","MEAN_ANOMALY":"198.6172","RA_OF_ASC_NODE":"293.2642","ARG_OF_PERICENTER":"56.8546"},{"SITE":"AFWTR","TLE_LINE2":"2 50203  53.2176 294.1437 0001424  59.4029 207.7026 15.52265513 13964","PERIOD":"92.768","ELEMENT_SET_NO":"999","EPHEMERIS_TYPE":"0","FILE":"3360891","OBJECT_NAME":"STARLINK-3257","TLE_LINE1":"1 50203U 21125AZ  22074.91667824 -.00712890  00000-0 -12613-1 0  9992","OBJECT_ID":"2021-125AZ","CENTER_NAME":"EARTH","APOAPSIS":"411.082","MEAN_MOTION_DOT":"-0.00712890","DECAY_DATE":null,"SEMIMAJOR_AXIS":"6788.250","MEAN_ANOMALY":"207.7026","RA_OF_ASC_NODE":"294.1437","ARG_OF_PERICENTER":"59.4029","LAUNCH_DATE":"2021-12-18","BSTAR":"-0.01261300000000","GP_ID":"198825197","MEAN_MOTION":"15.52265513","REF_FRAME":"TEME","RCS_SIZE":"LARGE","ECCENTRICITY":"0.00014240","NORAD_CAT_ID":"50203","REV_AT_EPOCH":"1396","MEAN_MOTION_DDOT":"0.0000000000000","COUNTRY_CODE":"US","MEAN_ELEMENT_THEORY":"SGP4","PERIAPSIS":"409.148","EPOCH":"2022-03-15T22:00:00.999936","TIME_SYSTEM":"UTC","OBJECT_TYPE":"PAYLOAD","INCLINATION":"53.2176","CLASSIFICATION_TYPE":"U"},{"MEAN_ANOMALY":"253.7990","RA_OF_ASC_NODE":"294.1290","ARG_OF_PERICENTER":"51.7423","DECAY_DATE":null,"SEMIMAJOR_AXIS":"6786.503","OBJECT_ID":"2021-125BA","CENTER_NAME":"EARTH","APOAPSIS":"409.338","MEAN_MOTION_DOT":"-0.00714565","TLE_LINE2":"2 50204  53.2177 294.1290 0001429  51.7423 253.7990 15.52864829 13967","PERIOD":"92.732","SITE":"AFWTR","OBJECT_NAME":"STARLINK-3254","FILE":"3360891","EPHEMERIS_TYPE":"0","ELEMENT_SET_NO":"999","TLE_LINE1":"1 50204U 21125BA  22074.91667824 -.00714565  00000-0 -12373-1 0  9997","CLASSIFICATION_TYPE":"U","OBJECT_TYPE":"PAYLOAD","TIME_SYSTEM":"UTC","INCLINATION":"53.2177","MEAN_MOTION_DDOT":"0.0000000000000","COUNTRY_CODE":"US","EPOCH":"2022-03-15T22:00:00.999936","MEAN_ELEMENT_THEORY":"SGP4","PERIAPSIS":"407.399","BSTAR":"-0.01237300000000","LAUNCH_DATE":"2021-12-18","RCS_SIZE":"LARGE","ECCENTRICITY":"0.00014290","REF_FRAME":"TEME","GP_ID":"198824697","MEAN_MOTION":"15.52864829","NORAD_CAT_ID":"50204","REV_AT_EPOCH":"1396"},{"CENTER_NAME":"EARTH","OBJECT_ID":"2021-125BB","MEAN_MOTION_DOT":"0.00061761","APOAPSIS":"352.458","ELEMENT_SET_NO":"999","FILE":"3360891","OBJECT_NAME":"STARLINK-3260","EPHEMERIS_TYPE":"0","SITE":"AFWTR","PERIOD":"91.538","TLE_LINE2":"2 50205  53.2133 289.4075 0003650   7.0231  25.9354 15.73115045 16640","TLE_LINE1":"1 50205U 21125BB  22074.91667824  .00061761  00000-0  44273-3 0  9995","RA_OF_ASC_NODE":"289.4075","MEAN_ANOMALY":"25.9354","ARG_OF_PERICENTER":"7.0231","DECAY_DATE":null,"SEMIMAJOR_AXIS":"6728.137","COUNTRY_CODE":"US","MEAN_MOTION_DDOT":"0.0000000000000","PERIAPSIS":"347.547","MEAN_ELEMENT_THEORY":"SGP4","EPOCH":"2022-03-15T22:00:00.999936","MEAN_MOTION":"15.73115045","GP_ID":"198824693","REF_FRAME":"TEME","ECCENTRICITY":"0.00036500","RCS_SIZE":"LARGE","LAUNCH_DATE":"2021-12-18","BSTAR":"0.00044273000000","REV_AT_EPOCH":"1664","NORAD_CAT_ID":"50205","CLASSIFICATION_TYPE":"U","INCLINATION":"53.2133","TIME_SYSTEM":"UTC","OBJECT_TYPE":"PAYLOAD"},{"MEAN_MOTION_DOT":"-0.00713885","APOAPSIS":"409.585","CENTER_NAME":"EARTH","OBJECT_ID":"2021-125BC","TLE_LINE1":"1 50206U 21125BC  22074.91667824 -.00713885  00000-0 -12409-1 0  9993","ELEMENT_SET_NO":"999","FILE":"3360891","OBJECT_NAME":"STARLINK-3258","EPHEMERIS_TYPE":"0","SITE":"AFWTR","TLE_LINE2":"2 50206  53.2177 294.1346 0001331  60.8031 235.8404 15.52757159 14968","PERIOD":"92.738","ARG_OF_PERICENTER":"60.8031","RA_OF_ASC_NODE":"294.1346","MEAN_ANOMALY":"235.8404","SEMIMAJOR_AXIS":"6786.817","DECAY_DATE":null,"PERIAPSIS":"407.779","MEAN_ELEMENT_THEORY":"SGP4","EPOCH":"2022-03-15T22:00:00.999936","COUNTRY_CODE":"US","MEAN_MOTION_DDOT":"0.0000000000000","REV_AT_EPOCH":"1496","NORAD_CAT_ID":"50206","MEAN_MOTION":"15.52757159","GP_ID":"198825187","REF_FRAME":"TEME","ECCENTRICITY":"0.00013310","RCS_SIZE":"LARGE","LAUNCH_DATE":"2021-12-18","BSTAR":"-0.01240900000000","CLASSIFICATION_TYPE":"U","INCLINATION":"53.2177","TIME_SYSTEM":"UTC","OBJECT_TYPE":"PAYLOAD"},{"ARG_OF_PERICENTER":"48.3839","RA_OF_ASC_NODE":"294.1377","MEAN_ANOMALY":"240.6096","SEMIMAJOR_AXIS":"6787.166","DECAY_DATE":null,"MEAN_MOTION_DOT":"-0.00713911","APOAPSIS":"410.061","CENTER_NAME":"EARTH","OBJECT_ID":"2021-125BD","TLE_LINE1":"1 50207U 21125BD  22074.91667824 -.00713911  00000-0 -12463-1 0  9994","ELEMENT_SET_NO":"999","FILE":"3360891","OBJECT_NAME":"STARLINK-3262","EPHEMERIS_TYPE":"0","SITE":"AFWTR","PERIOD":"92.745","TLE_LINE2":"2 50207  53.2176 294.1377 0001517  48.3839 240.6096 15.52637464 15031","CLASSIFICATION_TYPE":"U","INCLINATION":"53.2176","TIME_SYSTEM":"UTC","OBJECT_TYPE":"PAYLOAD","MEAN_ELEMENT_THEORY":"SGP4","PERIAPSIS":"408.001","EPOCH":"2022-03-15T22:00:00.999936","COUNTRY_CODE":"US","MEAN_MOTION_DDOT":"0.0000000000000","REV_AT_EPOCH":"1503","NORAD_CAT_ID":"50207","GP_ID":"198824698","MEAN_MOTION":"15.52637464","REF_FRAME":"TEME","RCS_SIZE":"LARGE","ECCENTRICITY":"0.00015170","LAUNCH_DATE":"2021-12-18","BSTAR":"-0.01246300000000"},{"ARG_OF_PERICENTER":"35.3147","RA_OF_ASC_NODE":"224.3737","MEAN_ANOMALY":"252.7888","SEMIMAJOR_AXIS":"6798.732","DECAY_DATE":null,"MEAN_MOTION_DOT":"0.00219603","APOAPSIS":"422.003","CENTER_NAME":"EARTH","OBJECT_ID":"2022-001A","TLE_LINE1":"1 50803U 22001A   22074.91667824  .00219603  00000-0  39328-2 0  9997","FILE":"3360930","OBJECT_NAME":"STARLINK-3321","EPHEMERIS_TYPE":"0","ELEMENT_SET_NO":"999","PERIOD":"92.983","TLE_LINE2":"2 50803  53.2154 224.3737 0002068  35.3147 252.7888 15.48677211  3673","SITE":"AFETR","CLASSIFICATION_TYPE":"U","INCLINATION":"53.2154","OBJECT_TYPE":"PAYLOAD","TIME_SYSTEM":"UTC","EPOCH":"2022-03-15T22:00:00.999936","PERIAPSIS":"419.191","MEAN_ELEMENT_THEORY":"SGP4","COUNTRY_CODE":"US","MEAN_MOTION_DDOT":"0.0000000000000","REV_AT_EPOCH":"367","NORAD_CAT_ID":"50803","RCS_SIZE":"LARGE","ECCENTRICITY":"0.00020680","GP_ID":"198849145","MEAN_MOTION":"15.48677211","REF_FRAME":"TEME","BSTAR":"0.00393280000000","LAUNCH_DATE":"2022-01-06"}];
